{
    "links": {
        "self": "http://www.neowsapp.com/rest/v1/neo/3529603?api_key=iIulBulltgU6a56xZRHN4H3l9WmuAYTsLGpBGhQ2"
    },
    "id": "3529603",
    "neo_reference_id": "3529603",
    "name": "(2010 LD64)",
    "designation": "2010 LD64",
    "nasa_jpl_url": "http://ssd.jpl.nasa.gov/sbdb.cgi?sstr=3529603",
    "absolute_magnitude_h": 25.5,
    "estimated_diameter": {
        "kilometers": {
            "estimated_diameter_min": 0.0211132445,
            "estimated_diameter_max": 0.0472106499
        },
        "meters": {
            "estimated_diameter_min": 21.113244479,
            "estimated_diameter_max": 47.2106498806
        },
        "miles": {
            "estimated_diameter_min": 0.0131191578,
            "estimated_diameter_max": 0.0293353287
        },
        "feet": {
            "estimated_diameter_min": 69.2691770164,
            "estimated_diameter_max": 154.8905885541
        }
    },
    "is_potentially_hazardous_asteroid": false,
    "close_approach_data": [
        {
            "close_approach_date": "2010-06-06",
            "close_approach_date_full": "2010-Jun-06 22:09",
            "epoch_date_close_approach": 1275862140000,
            "relative_velocity": {
                "kilometers_per_second": "6.5785130538",
                "kilometers_per_hour": "23682.6469935798",
                "miles_per_hour": "14715.475849983"
            },
            "miss_distance": {
                "astronomical": "0.0816701764",
                "lunar": "31.7696986196",
                "kilometers": "12217684.431964268",
                "miles": "7591717.0734241784"
            },
            "orbiting_body": "Earth"
        }
    ],
    "orbital_data": {
        "orbit_id": "7",
        "orbit_determination_date": "2017-04-06 08:57:20",
        "first_observation_date": "2010-06-14",
        "last_observation_date": "2010-06-15",
        "data_arc_in_days": 1,
        "observations_used": 18,
        "orbit_uncertainty": "9",
        "minimum_orbit_intersection": ".0745996",
        "jupiter_tisserand_invariant": "3.330",
        "epoch_osculation": "2455362.5",
        "eccentricity": ".5420457008831741",
        "semi_major_axis": "2.368838902208181",
        "inclination": "2.041003482551495",
        "ascending_node_longitude": "103.2323864733205",
        "orbital_period": "1331.685640571837",
        "perihelion_distance": "1.084819959181419",
        "perihelion_argument": "142.4231469757823",
        "aphelion_distance": "3.652857845234943",
        "perihelion_time": "2455346.343938468639",
        "mean_anomaly": "4.367533878935904",
        "mean_motion": ".2703340706185079",
        "equinox": "J2000",
        "orbit_class": {
            "orbit_class_type": "AMO",
            "orbit_class_description": "Near-Earth asteroid orbits similar to that of 1221 Amor",
            "orbit_class_range": "1.017 AU < q (perihelion) < 1.3 AU"
        }
    },
    "is_sentry_object": false
}